{
    "links": {
        "self": "http://www.neowsapp.com/rest/v1/neo/3780705?api_key=iIulBulltgU6a56xZRHN4H3l9WmuAYTsLGpBGhQ2"
    },
    "id": "3780705",
    "neo_reference_id": "3780705",
    "name": "(2017 PY26)",
    "designation": "2017 PY26",
    "nasa_jpl_url": "http://ssd.jpl.nasa.gov/sbdb.cgi?sstr=3780705",
    "absolute_magnitude_h": 22.5,
    "estimated_diameter": {
        "kilometers": {
            "estimated_diameter_min": 0.0840533402,
            "estimated_diameter_max": 0.1879489824
        },
        "meters": {
            "estimated_diameter_min": 84.0533402073,
            "estimated_diameter_max": 187.9489824394
        },
        "miles": {
            "estimated_diameter_min": 0.0522283081,
            "estimated_diameter_max": 0.1167860472
        },
        "feet": {
            "estimated_diameter_min": 275.7655606856,
            "estimated_diameter_max": 616.6305395464
        }
    },
    "is_potentially_hazardous_asteroid": false,
    "close_approach_data": [
        {
            "close_approach_date": "2017-08-20",
            "close_approach_date_full": "2017-Aug-20 18:00",
            "epoch_date_close_approach": 1503252000000,
            "relative_velocity": {
                "kilometers_per_second": "18.3755229438",
                "kilometers_per_hour": "66151.882597626",
                "miles_per_hour": "41104.2072729527"
            },
            "miss_distance": {
                "astronomical": "0.0612961149",
                "lunar": "23.8441886961",
                "kilometers": "9169768.228315263",
                "miles": "5697829.7651981094"
            },
            "orbiting_body": "Earth"
        },
        {
            "close_approach_date": "2131-08-04",
            "close_approach_date_full": "2131-Aug-04 19:30",
            "epoch_date_close_approach": 5099311800000,
            "relative_velocity": {
                "kilometers_per_second": "27.6427600449",
                "kilometers_per_hour": "99513.9361617574",
                "miles_per_hour": "61834.0899445097"
            },
            "miss_distance": {
                "astronomical": "0.2806389292",
                "lunar": "109.1685434588",
                "kilometers": "41982986.047400804",
                "miles": "26087017.8587629352"
            },
            "orbiting_body": "Earth"
        },
        {
            "close_approach_date": "2133-08-26",
            "close_approach_date_full": "2133-Aug-26 22:32",
            "epoch_date_close_approach": 5164381920000,
            "relative_velocity": {
                "kilometers_per_second": "16.3863054346",
                "kilometers_per_hour": "58990.6995644012",
                "miles_per_hour": "36654.5266265581"
            },
            "miss_distance": {
                "astronomical": "0.137606924",
                "lunar": "53.529093436",
                "kilometers": "20585702.72765188",
                "miles": "12791362.531600744"
            },
            "orbiting_body": "Earth"
        },
        {
            "close_approach_date": "2171-02-28",
            "close_approach_date_full": "2171-Feb-28 00:00",
            "epoch_date_close_approach": 6347980800000,
            "relative_velocity": {
                "kilometers_per_second": "27.9559128889",
                "kilometers_per_hour": "100641.2864001401",
                "miles_per_hour": "62534.5815412426"
            },
            "miss_distance": {
                "astronomical": "0.2826052536",
                "lunar": "109.9334436504",
                "kilometers": "42277143.989369832",
                "miles": "26269799.1282224016"
            },
            "orbiting_body": "Earth"
        }
    ],
    "orbital_data": {
        "orbit_id": "2",
        "orbit_determination_date": "2017-08-20 06:18:10",
        "first_observation_date": "2017-08-15",
        "last_observation_date": "2017-08-19",
        "data_arc_in_days": 4,
        "observations_used": 53,
        "orbit_uncertainty": "9",
        "minimum_orbit_intersection": ".00859743",
        "jupiter_tisserand_invariant": "4.045",
        "epoch_osculation": "2457982.5",
        "eccentricity": ".6164618825284379",
        "semi_major_axis": "1.624626118233579",
        "inclination": "16.95215866621194",
        "ascending_node_longitude": "145.7316958494636",
        "orbital_period": "756.3600348383547",
        "perihelion_distance": ".6231060429824382",
        "perihelion_argument": "268.6236243126924",
        "aphelion_distance": "2.626146193484719",
        "perihelion_time": "2458037.161818295497",
        "mean_anomaly": "333.982952985367",
        "mean_motion": ".4759638048260142",
        "equinox": "J2000",
        "orbit_class": {
            "orbit_class_type": "APO",
            "orbit_class_description": "Near-Earth asteroid orbits which cross the Earth’s orbit similar to that of 1862 Apollo",
            "orbit_class_range": "a (semi-major axis) > 1.0 AU; q (perihelion) < 1.017 AU"
        }
    },
    "is_sentry_object": false
}